     2.100          NAVIGATION                              RINEX VERSION / TYPE
fic2rin                                 09/19/2017 00:06:30 PGM / RUN BY / DATE
                                                            END OF HEADER
 4 17  9 18 12  0  0.0  .288453884423D-04  .716227077646D-11  .000000000000D+00
     .440000000000D+02  .115593750000D+03  .481984362298D-08  .257091693331D+01
     .590458512306D-05  .123339154525D-01  .614114105701D-05  .515366607285D+04
     .129600000000D+06 -.197440385818D-06  .615802826797D+00 -.165775418282D-06
     .957071324971D+00  .259000000000D+03  .439008419126D+00 -.822712840721D-08
     .519307345521D-09  .100000000000D+01  .196700000000D+04  .000000000000D+00
     .240000000000D+01  .630000000000D+02 -.558793544769D-08  .440000000000D+02
     .122406000000D+06  .400000000000D+01
 5 17  9 18 12  0  0.0 -.290093012154D-04  .136424205266D-11  .000000000000D+00
     .520000000000D+02 -.558437500000D+02  .445625704956D-08  .306830016962D+01
    -.295042991638D-05  .520532915834D-02  .124666839838D-04  .515356809807D+04
     .129600000000D+06  .558793544769D-08  .278725027744D+01 -.428408384323D-07
     .947564664477D+00  .132843750000D+03  .583618421318D+00 -.792068707127D-08
    -.853606984729D-10  .100000000000D+01  .196700000000D+04  .000000000000D+00
     .240000000000D+01  .000000000000D+00 -.107102096081D-07  .520000000000D+02
     .122406000000D+06  .400000000000D+01
 7 17  9 18 12  0  0.0  .304560177028D-03 -.488853402203D-11  .000000000000D+00
     .230000000000D+02 -.442500000000D+02  .495663503517D-08 -.488823069191D+00
    -.212341547012D-05  .110716175986D-01  .538490712643D-05  .515371218491D+04
     .129600000000D+06  .135973095894D-06 -.136368426587D+01  .147148966789D-06
     .960731954159D+00  .274562500000D+03 -.255914995759D+01 -.850964017496D-08
    -.343585740297D-09  .100000000000D+01  .196700000000D+04  .000000000000D+00
     .240000000000D+01  .000000000000D+00 -.111758708954D-07  .230000000000D+02
     .122406000000D+06  .400000000000D+01
 8 17  9 18 12  0  0.0 -.739195384085D-04 -.136424205266D-11  .000000000000D+00
     .112000000000D+03  .106218750000D+03  .476234122777D-08  .285995420752D+01
     .558234751225D-05  .261881970800D-02  .526010990143D-05  .515368861961D+04
     .129600000000D+06 -.558793544769D-08  .698977822706D+00  .782310962677D-07
     .967605054897D+00  .280875000000D+03 -.630653193488D+00 -.833463288520D-08
     .495377777330D-09  .100000000000D+01  .196700000000D+04  .000000000000D+00
     .240000000000D+01  .000000000000D+00  .558793544769D-08  .112000000000D+03
     .122406000000D+06  .400000000000D+01
 9 17  9 18 12  0  0.0  .444648787379D-03  .613908923697D-11  .000000000000D+00
     .740000000000D+02  .600000000000D+02  .477805616808D-08  .250634050355D+01
     .320747494698D-05  .801911693998D-03  .742264091969D-05  .515377053642D+04
     .129600000000D+06 -.223517417908D-07 -.244258075367D+01  .260770320892D-07
     .953339665258D+00  .231812500000D+03  .186261309708D+01 -.820319883902D-08
     .574309636587D-09  .100000000000D+01  .196700000000D+04  .000000000000D+00
     .240000000000D+01  .000000000000D+00  .931322574615D-09  .740000000000D+02
     .122406000000D+06  .400000000000D+01
10 17  9 18 12  0  0.0  .677853822708D-04  .966338120634D-11  .000000000000D+00
     .720000000000D+02 -.460000000000D+02  .405838333367D-08 -.188784097746D+01
    -.237673521042D-05  .275346054696D-02  .133905559778D-04  .515367929459D+04
     .129600000000D+06 -.106170773506D-06  .280198756788D+01 -.279396772385D-07
     .960781655338D+00  .121781250000D+03 -.284987051655D+01 -.770889253489D-08
    -.282154610015D-10  .100000000000D+01  .196700000000D+04  .000000000000D+00
     .240000000000D+01  .000000000000D+00  .186264514923D-08  .720000000000D+02
     .122406000000D+06  .400000000000D+01
11 17  9 18 12  0  0.0 -.716309528798D-03 -.227373675443D-11  .000000000000D+00
     .370000000000D+02 -.104687500000D+02  .665992026955D-08 -.463614660257D+00
    -.422820448875D-06  .170864959946D-01  .112876296043D-05  .515372194290D+04
     .129600000000D+06 -.225380063057D-06  .135260402779D+01  .409781932831D-07
     .901884665631D+00  .326750000000D+03  .169445712265D+01 -.974504877754D-08
     .100004165575D-10  .100000000000D+01  .196700000000D+04  .000000000000D+00
     .240000000000D+01  .000000000000D+00 -.121071934700D-07  .370000000000D+02
     .122406000000D+06  .400000000000D+01
12 17  9 18 12  0  0.0  .372315291315D-03 -.125055521494D-11  .000000000000D+00
     .260000000000D+02  .270937500000D+02  .369443960252D-08 -.109904707984D+01
     .160001218319D-05  .653495849110D-02  .124331563711D-04  .515372650909D+04
     .129600000000D+06  .113621354103D-06 -.276895147783D+00  .109896063805D-06
     .988856113895D+00  .157500000000D+03  .914217271310D+00 -.757281543816D-08
    -.335728270144D-10  .100000000000D+01  .196700000000D+04  .000000000000D+00
     .240000000000D+01  .000000000000D+00 -.125728547573D-07  .260000000000D+02
     .122406000000D+06  .400000000000D+01
13 17  9 18 12  0  0.0 -.915620476007D-04 -.568434188608D-12  .000000000000D+00
     .680000000000D+02  .581562500000D+02  .455768984608D-08  .740416245651D+00
     .297650694847D-05  .349758344237D-02  .610388815403D-05  .515365471649D+04
     .129600000000D+06 -.484287738800D-07 -.231462666922D+01 -.242143869400D-07
     .969176767268D+00  .265437500000D+03  .174428614004D+01 -.825427239501D-08
     .499306512406D-09  .100000000000D+01  .196700000000D+04  .000000000000D+00
     .240000000000D+01  .000000000000D+00 -.111758708954D-07  .680000000000D+02
     .122406000000D+06  .400000000000D+01
14 17  9 18 12  0  0.0 -.839983113110D-04 -.102318153949D-11  .000000000000D+00
     .790000000000D+02  .569062500000D+02  .468519515718D-08  .202530649152D+01
     .289082527161D-05  .934557651635D-02  .631622970104D-05  .515368800545D+04
     .129600000000D+06  .242143869400D-07 -.235485836761D+01 -.219792127609D-06
     .961743124599D+00  .255781250000D+03 -.194719414745D+01 -.816926885427D-08
     .543951229181D-09  .100000000000D+01  .196700000000D+04  .000000000000D+00
     .240000000000D+01  .000000000000D+00 -.977888703346D-08  .790000000000D+02
     .122406000000D+06  .400000000000D+01
16 17  9 18 12  0  0.0  .370144844055D-04  .000000000000D+00  .000000000000D+00
     .470000000000D+02  .496875000000D+02  .356979155329D-08 -.306000026440D+01
     .249408185482D-05  .928864197340D-02  .138171017170D-04  .515377180290D+04
     .129600000000D+06 -.894069671631D-07 -.258033850317D+00 -.113621354103D-06
     .989324979139D+00  .129718750000D+03  .460282207481D+00 -.736280669045D-08
    -.246438836595D-10  .100000000000D+01  .196700000000D+04  .000000000000D+00
     .240000000000D+01  .000000000000D+00 -.107102096081D-07  .470000000000D+02
     .122406000000D+06  .400000000000D+01
17 17  9 18 12  0  0.0 -.156336463988D-03  .250111042988D-11  .000000000000D+00
     .510000000000D+02  .947500000000D+02  .431839416416D-08  .234205385089D+01
     .474229454994D-05  .118519570678D-01  .532530248165D-05  .515368430328D+04
     .129600000000D+06  .279396772385D-07  .758076851641D+00 -.184401869774D-06
     .980853814487D+00  .283343750000D+03 -.184388336715D+01 -.794747390133D-08
     .377515725045D-09  .100000000000D+01  .196700000000D+04  .000000000000D+00
     .240000000000D+01  .000000000000D+00 -.111758708954D-07  .510000000000D+02
     .122406000000D+06  .400000000000D+01
18 17  9 18 12  0  0.0  .629800371826D-03  .795807864051D-12  .000000000000D+00
     .740000000000D+02 -.507187500000D+02  .477912764128D-08 -.246773059907D+01
    -.263564288616D-05  .181212326279D-01  .125057995319D-04  .515363653374D+04
     .129600000000D+06  .188127160072D-06  .275578752799D+01 -.670552253723D-07
     .926398541041D+00  .117687500000D+03 -.178155647238D+01 -.778389565907D-08
    -.332156692802D-10  .100000000000D+01  .196700000000D+04  .000000000000D+00
     .240000000000D+01  .000000000000D+00 -.111758708954D-07  .740000000000D+02
     .122406000000D+06  .400000000000D+01
19 17  9 18 12  0  0.0 -.485614407808D-03  .193267624127D-11  .000000000000D+00
     .390000000000D+02  .935625000000D+02  .449232998072D-08 -.955300421674D+00
     .513531267643D-05  .100320798811D-01  .493228435516D-05  .515367715454D+04
     .129600000000D+06 -.931322574615D-08  .805643881684D+00  .221654772758D-06
     .978153986005D+00  .294750000000D+03  .107020165614D+01 -.828427364468D-08
     .405374028313D-09  .100000000000D+01  .196700000000D+04  .000000000000D+00
     .240000000000D+01  .000000000000D+00 -.153668224812D-07  .390000000000D+02
     .122406000000D+06  .400000000000D+01
20 17  9 18 12  0  0.0  .486991833895D-03  .125055521494D-11  .000000000000D+00
     .810000000000D+02 -.699687500000D+02  .495984945478D-08  .136291404535D+01
    -.387430191040D-05  .454236229416D-02  .118594616652D-04  .515374706650D+04
     .129600000000D+06  .391155481339D-07  .270462769110D+01 -.931322574615D-07
     .927755121068D+00  .137437500000D+03  .166412555998D+01 -.826462996930D-08
    -.221437795202D-09  .100000000000D+01  .196700000000D+04  .000000000000D+00
     .240000000000D+01  .000000000000D+00 -.838190317154D-08  .810000000000D+02
     .122406000000D+06  .400000000000D+01
21 17  9 18 12  0  0.0 -.478354748338D-03  .306954461848D-11  .000000000000D+00
     .520000000000D+02 -.722812500000D+02  .533307928702D-08 -.156913555636D+01
    -.337511301041D-05  .239855714608D-01  .338256359100D-05  .515360039139D+04
     .129600000000D+06  .150874257088D-06  .171575322636D+01  .596046447754D-06
     .940631660170D+00  .298937500000D+03 -.164025790669D+01 -.861607317975D-08
    -.438946855327D-09  .100000000000D+01  .196700000000D+04  .000000000000D+00
     .240000000000D+01  .000000000000D+00 -.977888703346D-08  .520000000000D+02
     .122406000000D+06  .400000000000D+01
